NORAD_CAT_ID,OBJECT_NAME,OBJECT_TYPE,EPOCH,MEAN_MOTION,ECCENTRICITY,INCLINATION,RA_OF_ASC_NODE,ARG_OF_PERICENTER,MEAN_ANOMALY,BSTAR,MEAN_MOTION_DOT,MEAN_MOTION_DDOT,TLE_LINE0,TLE_LINE1,TLE_LINE2,SEMIMAJOR_AXIS,PERIOD,APOGEE,PERIGEE,DECAYED
53926.0,STARLINK-5014,PAYLOAD,2023-02-05 18:59:56,15.08855787,0.0001376,53.2194,332.2442,85.5542,274.5608,0.00040344,6.141e-05,0.0,0 STARLINK-5014,1 53926U 22119AS  23036.79163001  .00006141  00000-0  40344-3 0  9991,2 53926  53.2194 332.2442 0001376  85.5542 274.5608 15.08855787 21208,6917.832,95.437,540.649,538.745,0.0
53926.0,STARLINK-5014,PAYLOAD,2023-02-05 20:35:19,15.0885609,0.0001292,53.218,331.9462,82.3235,277.7903,0.00036334,5.502e-05,0.0,0 STARLINK-5014,1 53926U 22119AS  23036.85786837  .00005502  00000-0  36334-3 0  9990,2 53926  53.2180 331.9462 0001292  82.3235 277.7903 15.08856090 21641,6917.831,95.437,540.59,538.802,0.0
53926.0,STARLINK-5014,PAYLOAD,2023-02-06 02:56:50,15.08899263,9.98e-05,53.2184,330.7579,87.857,272.2536,0.001255,0.00019774,0.0,0 STARLINK-5014,1 53926U 22119AS  23037.12280990  .00019774  00000-0  12550-2 0  9999,2 53926  53.2184 330.7579 0000998  87.8570 272.2536 15.08899263 21253,6917.699,95.434,540.255,538.874,0.0
53926.0,STARLINK-5014,PAYLOAD,2023-02-06 06:07:37,15.0885046,0.0001023,53.2182,330.163,101.9366,258.174,-0.00035048,-5.863e-05,0.0,0 STARLINK-5014,1 53926U 22119AS  23037.25530033 -.00005863  00000-0 -35048-3 0  9993,2 53926  53.2182 330.1630 0001023 101.9366 258.1740 15.08850460 21272,6917.848,95.437,540.421,539.006,0.0
53926.0,STARLINK-5014,PAYLOAD,2023-02-06 20:26:06,15.08835375,0.0001577,53.2177,327.4873,92.4123,267.705,-0.00041359,-6.863e-05,0.0,0 STARLINK-5014,1 53926U 22119AS  23037.85146782 -.00006863  00000-0 -41359-3 0  9996,2 53926  53.2177 327.4873 0001577  92.4123 267.7050 15.08835375 21361,6917.895,95.438,540.85,538.669,0.0
53926.0,STARLINK-5014,PAYLOAD,2023-02-07 04:23:02,15.08853262,0.0001487,53.2179,326.0,98.0626,262.0535,0.00098767,0.00015471,0.0,0 STARLINK-5014,1 53926U 22119AS  23038.18266563  .00015471  00000-0  98767-3 0  9991,2 53926  53.2179 326.0000 0001487  98.0626 262.0535 15.08853262 21417,6917.84,95.437,540.734,538.676,0.0
53926.0,STARLINK-5014,PAYLOAD,2023-02-07 23:27:40,15.08843518,0.0001342,53.2181,322.4332,84.6536,275.4609,0.0016149,0.00025509,0.0,0 STARLINK-5014,1 53926U 22119AS  23038.97755745  .00025509  00000-0  16149-2 0  9999,2 53926  53.2181 322.4332 0001342  84.6536 275.4609 15.08843518 21535,6917.87,95.437,540.663,538.806,0.0
53926.0,STARLINK-5014,PAYLOAD,2023-02-08 21:43:05,15.08843277,0.0001317,53.2179,318.2702,107.6839,252.4297,0.0025249,0.00040128,0.0,0 STARLINK-5014,1 53926U 22119AS  23039.90492982  .00040128  00000-0  25249-2 0  9999,2 53926  53.2179 318.2702 0001317 107.6839 252.4297 15.08843277 22104,6917.87,95.437,540.646,538.824,0.0
53926.0,STARLINK-5014,PAYLOAD,2023-02-09 00:53:52,15.08834235,0.000112,53.2178,317.6756,81.4174,278.6945,0.0023166,0.00036767,0.0,0 STARLINK-5014,1 53926U 22119AS  23040.03741116  .00036767  00000-0  23166-2 0  9991,2 53926  53.2178 317.6756 0001120  81.4174 278.6945 15.08834235 21695,6917.898,95.438,540.538,538.988,0.0
53926.0,STARLINK-5014,PAYLOAD,2023-02-09 04:04:38,15.08848914,0.000109,53.2178,317.0806,77.1377,282.9737,0.0023655,0.00037569,0.0,0 STARLINK-5014,1 53926U 22119AS  23040.16989050  .00037569  00000-0  23655-2 0  9990,2 53926  53.2178 317.0806 0001090  77.1377 282.9737 15.08848914 22145,6917.853,95.437,540.472,538.964,0.0
53926.0,STARLINK-5014,PAYLOAD,2023-02-09 21:33:53,15.08862176,0.000117,53.2186,313.809,88.4798,271.6328,0.0019054,0.00030185,0.0,0 STARLINK-5014,1 53926U 22119AS  23040.89853100  .00030185  00000-0  19054-2 0  9991,2 53926  53.2186 313.8090 0001170  88.4798 271.6328 15.08862176 21825,6917.813,95.436,540.487,538.868,0.0
53926.0,STARLINK-5014,PAYLOAD,2023-02-10 03:55:25,15.08891966,0.0001395,53.2187,312.6201,73.6618,286.4528,0.0028654,0.00045676,0.0,0 STARLINK-5014,1 53926U 22119AS  23041.16348534  .00045676  00000-0  28654-2 0  9999,2 53926  53.2187 312.6201 0001395  73.6618 286.4528 15.08891966 21862,6917.722,95.434,540.552,538.622,0.0
53926.0,STARLINK-5014,PAYLOAD,2023-02-11 00:35:25,15.08877321,9.7e-05,53.2179,308.7532,87.0263,273.084,0.0021406,0.00033979,0.0,0 STARLINK-5014,1 53926U 22119AS  23042.02459835  .00033979  00000-0  21406-2 0  9993,2 53926  53.2179 308.7532 0000970  87.0263 273.0840 15.08877321 21991,6917.766,95.435,540.302,538.96,0.0
53926.0,STARLINK-5014,PAYLOAD,2023-02-11 05:21:34,15.08896949,0.0001112,53.218,307.8609,88.7228,271.3892,0.0025611,0.00040772,0.0,0 STARLINK-5014,1 53926U 22119AS  23042.22331169  .00040772  00000-0  25611-2 0  9995,2 53926  53.2180 307.8609 0001112  88.7228 271.3892 15.08896949 22453,6917.706,95.434,540.341,538.802,0.0
53926.0,STARLINK-5014,PAYLOAD,2023-02-11 18:04:40,15.08858135,7.93e-05,53.2186,305.4825,62.0383,298.0689,0.00177,0.00028008,0.0,0 STARLINK-5014,1 53926U 22119AS  23042.75324160  .00028008  00000-0  17700-2 0  9994,2 53926  53.2186 305.4825 0000793  62.0383 298.0689 15.08858135 22101,6917.825,95.436,540.239,539.141,0.0
53926.0,STARLINK-5014,PAYLOAD,2023-02-12 02:01:35,15.08846608,0.0001355,53.218,303.9977,77.6018,282.5126,0.001945,0.00030808,0.0,0 STARLINK-5014,1 53926U 22119AS  23043.08444256  .00030808  00000-0  19450-2 0  9995,2 53926  53.2180 303.9977 0001355  77.6018 282.5126 15.08846608 22159,6917.86,95.437,540.663,538.788,0.0
53926.0,STARLINK-5014,PAYLOAD,2023-02-12 09:58:31,15.08850091,0.0001159,53.2173,302.5087,70.28,289.8317,0.0014831,0.00023401,0.0,0 STARLINK-5014,1 53926U 22119AS  23043.41564223  .00023401  00000-0  14831-2 0  9998,2 53926  53.2173 302.5087 0001159  70.2800 289.8317 15.08850091 22207,6917.85,95.437,540.516,538.913,0.0
53926.0,STARLINK-5014,PAYLOAD,2023-02-12 16:20:00,15.09003153,8.79e-05,53.2168,301.3181,346.8999,13.197,0.007458,0.00120991,0.0,0 STARLINK-5014,1 53926U 22119AS  23043.68056683  .00120991  00000-0  74580-2 0  9992,2 53926  53.2168 301.3181 0000879 346.8999  13.1970 15.09003153 22249,6917.382,95.427,539.855,538.639,0.0
53926.0,STARLINK-5014,PAYLOAD,2023-02-13 03:27:28,15.09365503,0.0004579,53.2167,299.2361,110.4286,249.7198,0.0083728,0.00137561,0.0,0 STARLINK-5014,1 53926U 22119AS  23044.14407821  .00137561  00000-0  83728-2 0  9993,2 53926  53.2167 299.2361 0004579 110.4286 249.7198 15.09365503 22315,6916.275,95.404,541.307,534.973,0.0
53926.0,STARLINK-5014,PAYLOAD,2023-02-13 09:48:47,15.09685429,0.0001051,53.2166,298.047,80.4146,279.6965,0.0030777,0.00050197,0.0,0 STARLINK-5014,1 53926U 22119AS  23044.40887803  .00050197  00000-0  30777-2 0  9999,2 53926  53.2166 298.0470 0001051  80.4146 279.6965 15.09685429 22355,6915.297,95.384,537.889,536.436,0.0
53926.0,STARLINK-5014,PAYLOAD,2023-02-14 06:00:02,15.0953867,0.0001697,53.2159,294.267,89.945,163.9961,-0.034866,-0.00531572,0.0,0 STARLINK-5014,1 53926U 22119AS  23045.25002315 -.00531572  00000-0 -34866-1 0  9995,2 53926  53.2159 294.2670 0001697  89.9450 163.9961 15.09538670 22485,6915.746,95.393,538.784,536.437,0.0
53926.0,STARLINK-5014,PAYLOAD,2023-02-14 09:38:50,15.09557297,0.0001931,53.2162,293.5841,87.0322,273.0891,-0.0009393,-0.00015504,0.0,0 STARLINK-5014,1 53926U 22119AS  23045.40197802 -.00015504  00000-0 -93930-3 0  9999,2 53926  53.2162 293.5841 0001931  87.0322 273.0891 15.09557297 22503,6915.689,95.392,538.889,536.218,0.0
53926.0,STARLINK-5014,PAYLOAD,2023-02-15 03:07:56,15.0893907,0.0001072,53.2157,290.3137,69.852,290.2588,-0.0090082,-0.00141234,0.0,0 STARLINK-5014,1 53926U 22119AS  23046.13051563 -.00141234  00000-0 -90082-2 0  9997,2 53926  53.2157 290.3137 0001072  69.8520 290.2588 15.08939070 22612,6917.578,95.431,540.184,538.701,0.0
53926.0,STARLINK-5014,PAYLOAD,2023-02-15 09:29:29,15.0887121,0.0001518,53.2148,289.1235,90.4458,269.6709,-0.0019595,-0.00031365,0.0,0 STARLINK-5014,1 53926U 22119AS  23046.39548558 -.00031365  00000-0 -19595-2 0  9993,2 53926  53.2148 289.1235 0001518  90.4458 269.6709 15.08871210 23080,6917.785,95.436,540.7,538.6,0.0
53926.0,STARLINK-5014,PAYLOAD,2023-02-15 19:01:49,15.08854221,0.0001542,53.2152,287.3387,96.6145,263.5023,0.0012747,0.00020065,0.0,0 STARLINK-5014,1 53926U 22119AS  23046.79292894  .00020065  00000-0  12747-2 0  9991,2 53926  53.2152 287.3387 0001542  96.6145 263.5023 15.08854221 22715,6917.837,95.437,540.769,538.635,0.0
53926.0,STARLINK-5014,PAYLOAD,2023-02-15 22:12:35,15.0886039,0.0001502,53.2153,286.7447,96.9084,263.2079,0.0016901,0.00026727,0.0,0 STARLINK-5014,1 53926U 22119AS  23046.92540796  .00026727  00000-0  16901-2 0  9990,2 53926  53.2153 286.7447 0001502  96.9084 263.2079 15.08860390 23169,6917.818,95.436,540.722,538.644,0.0
53926.0,STARLINK-5014,PAYLOAD,2023-02-16 09:20:17,15.08852331,0.0001471,53.2152,284.6636,65.8457,294.2689,0.001407,0.00022183,0.0,0 STARLINK-5014,1 53926U 22119AS  23047.38909037  .00022183  00000-0  14070-2 0  9995,2 53926  53.2152 284.6636 0001471  65.8457 294.2689 15.08852331 22806,6917.843,95.437,540.725,538.69,0.0
53926.0,STARLINK-5014,PAYLOAD,2023-02-16 15:41:50,15.08828303,0.0001601,53.2154,283.473,83.0341,277.0833,0.00091579,0.00014312,0.0,0 STARLINK-5014,1 53926U 22119AS  23047.65405616  .00014312  00000-0  91579-3 0  9994,2 53926  53.2154 283.4730 0001601  83.0341 277.0833 15.08828303 22845,6917.916,95.438,540.889,538.674,0.0
53926.0,STARLINK-5014,PAYLOAD,2023-02-16 22:03:23,15.08827525,0.0001315,53.215,282.2842,74.1386,285.9751,0.0018558,0.0002936,0.0,0 STARLINK-5014,1 53926U 22119AS  23047.91901977  .00029360  00000-0  18558-2 0  9998,2 53926  53.2150 282.2842 0001315  74.1386 285.9751 15.08827525 23319,6917.919,95.438,540.693,538.874,0.0
53926.0,STARLINK-5014,PAYLOAD,2023-02-17 22:00:00,15.08864508,0.0001423,53.2163,277.8056,69.4677,312.6786,-0.0031082,-0.00049448,0.0,0 STARLINK-5014,1 53926U 22119AS  23048.91667824 -.00049448  00000-0 -31082-2 0  9997,2 53926  53.2163 277.8056 0001423  69.4677 312.6786 15.08864508 23037,6917.805,95.436,540.655,538.686,0.0
